GLOBALSTAR M023 [+]     
1 25621U 99004A   24088.87801191 -.00000086  00000+0  10154-3 0  9993
2 25621  52.0127 329.3637 0009733 220.0236 269.4128 12.62449866159482
GLOBALSTAR M040 [-]     
1 25622U 99004B   24088.97197156 -.00000066  00000+0  21090-3 0  9993
2 25622  51.9939 332.5783 0001209 106.1438 266.8264 12.61969805159041
GLOBALSTAR M036 [-]     
1 25623U 99004C   24088.85930057 -.00000014  00000+0  99546-3 0  9990
2 25623  51.9995 334.0720 0010883 279.1087 205.7299 11.86565241126115
GLOBALSTAR M038 [-]     
1 25624U 99004D   24088.78210167 -.00000067  00000+0  22999-3 0  9992
2 25624  51.9958 274.2537 0001730 177.2857 196.1774 12.32495674147455
GLOBALSTAR M022 [-]     
1 25649U 99012A   24088.94495858 -.00000110  00000+0 -27752-3 0  9990
2 25649  52.0043  61.2479 0002683  11.4951  22.0950 12.02479233122816
GLOBALSTAR M041 [-]     
1 25650U 99012B   24088.93155048 -.00000059  00000+0  33851-3 0  9993
2 25650  52.0015 289.1658 0002671 135.4347 224.6704 11.96657011124970
GLOBALSTAR M046 [-]     
1 25651U 99012C   24088.56779681 -.00000074  00000+0  16027-3 0  9991
2 25651  52.0078  28.6739 0002615  79.2030  91.1641 12.09384561129747
GLOBALSTAR M037 [+]     
1 25652U 99012D   24088.96965676 -.00000074  00000+0  16477-3 0  9996
2 25652  51.9988  99.8701 0001659 280.1263  91.0863 12.62400377155043
